[{"OBJECT_NAME":"STARLINK-31125","OBJECT_ID":"2023-211M","EPOCH":"2026-03-09T02:26:12.497856","MEAN_MOTION":15.27579104,"ECCENTRICITY":6.876e-5,"INCLINATION":43.0021,"RA_OF_ASC_NODE":88.6818,"ARG_OF_PERICENTER":254.9458,"MEAN_ANOMALY":105.1318,"EPHEMERIS_TYPE":0,"CLASSIFICATION_TYPE":"U","NORAD_CAT_ID":58678,"ELEMENT_SET_NO":999,"REV_AT_EPOCH":12354,"BSTAR":6.663399e-6,"MEAN_MOTION_DOT":-7.8e-7,"MEAN_MOTION_DDOT":0},{"OBJECT_NAME":"YAOGAN-43 01H","OBJECT_ID":"2024-148H","EPOCH":"2026-03-10T00:13:57.702432","MEAN_MOTION":15.25826805,"ECCENTRICITY":0.000635,"INCLINATION":34.994,"RA_OF_ASC_NODE":64.6147,"ARG_OF_PERICENTER":359.2394,"MEAN_ANOMALY":0.8311,"EPHEMERIS_TYPE":0,"CLASSIFICATION_TYPE":"U","NORAD_CAT_ID":60465,"ELEMENT_SET_NO":999,"REV_AT_EPOCH":8702,"BSTAR":0.00039232254,"MEAN_MOTION_DOT":0.00010268,"MEAN_MOTION_DDOT":0}]
